{
    "links": {
        "self": "http://www.neowsapp.com/rest/v1/neo/3836935?api_key=iIulBulltgU6a56xZRHN4H3l9WmuAYTsLGpBGhQ2"
    },
    "id": "3836935",
    "neo_reference_id": "3836935",
    "name": "(2018 XX5)",
    "designation": "2018 XX5",
    "nasa_jpl_url": "http://ssd.jpl.nasa.gov/sbdb.cgi?sstr=3836935",
    "absolute_magnitude_h": 20.8,
    "estimated_diameter": {
        "kilometers": {
            "estimated_diameter_min": 0.1838886721,
            "estimated_diameter_max": 0.411187571
        },
        "meters": {
            "estimated_diameter_min": 183.8886720703,
            "estimated_diameter_max": 411.1875710413
        },
        "miles": {
            "estimated_diameter_min": 0.1142630881,
            "estimated_diameter_max": 0.2555000322
        },
        "feet": {
            "estimated_diameter_min": 603.309310875,
            "estimated_diameter_max": 1349.040630575
        }
    },
    "is_potentially_hazardous_asteroid": false,
    "close_approach_data": [
        {
            "close_approach_date": "2018-12-07",
            "close_approach_date_full": "2018-Dec-07 03:03",
            "epoch_date_close_approach": 1544151780000,
            "relative_velocity": {
                "kilometers_per_second": "17.4198087222",
                "kilometers_per_hour": "62711.3113999729",
                "miles_per_hour": "38966.3701307221"
            },
            "miss_distance": {
                "astronomical": "0.4240756937",
                "lunar": "164.9654448493",
                "kilometers": "63440820.496292419",
                "miles": "39420297.9128926222"
            },
            "orbiting_body": "Earth"
        },
        {
            "close_approach_date": "2033-12-15",
            "close_approach_date_full": "2033-Dec-15 02:11",
            "epoch_date_close_approach": 2018225460000,
            "relative_velocity": {
                "kilometers_per_second": "16.6703872952",
                "kilometers_per_hour": "60013.3942625569",
                "miles_per_hour": "37289.9893405315"
            },
            "miss_distance": {
                "astronomical": "0.4991071068",
                "lunar": "194.1526645452",
                "kilometers": "74665360.079142516",
                "miles": "46394903.3929220808"
            },
            "orbiting_body": "Earth"
        }
    ],
    "orbital_data": {
        "orbit_id": "3",
        "orbit_determination_date": "2019-01-22 07:39:36",
        "first_observation_date": "2018-12-15",
        "last_observation_date": "2019-01-08",
        "data_arc_in_days": 24,
        "observations_used": 21,
        "orbit_uncertainty": "7",
        "minimum_orbit_intersection": ".416668",
        "jupiter_tisserand_invariant": "4.056",
        "epoch_osculation": "2459000.5",
        "eccentricity": ".2395787742448196",
        "semi_major_axis": "1.656710672645085",
        "inclination": "33.387158057681",
        "ascending_node_longitude": "267.9564741236971",
        "orbital_period": "778.876197330376",
        "perihelion_distance": "1.259797960414465",
        "perihelion_argument": "111.377601962478",
        "aphelion_distance": "2.053623384875705",
        "perihelion_time": "2459171.132692967237",
        "mean_anomaly": "281.1328197231462",
        "mean_motion": ".4622043929881435",
        "equinox": "J2000",
        "orbit_class": {
            "orbit_class_type": "AMO",
            "orbit_class_description": "Near-Earth asteroid orbits similar to that of 1221 Amor",
            "orbit_class_range": "1.017 AU < q (perihelion) < 1.3 AU"
        }
    },
    "is_sentry_object": false
}